{
    "links": {
        "self": "http://www.neowsapp.com/rest/v1/neo/3371138?api_key=iIulBulltgU6a56xZRHN4H3l9WmuAYTsLGpBGhQ2"
    },
    "id": "3371138",
    "neo_reference_id": "3371138",
    "name": "(2007 EJ88)",
    "designation": "2007 EJ88",
    "nasa_jpl_url": "http://ssd.jpl.nasa.gov/sbdb.cgi?sstr=3371138",
    "absolute_magnitude_h": 23.4,
    "estimated_diameter": {
        "kilometers": {
            "estimated_diameter_min": 0.0555334912,
            "estimated_diameter_max": 0.1241766613
        },
        "meters": {
            "estimated_diameter_min": 55.5334911581,
            "estimated_diameter_max": 124.1766612574
        },
        "miles": {
            "estimated_diameter_min": 0.0345069009,
            "estimated_diameter_max": 0.0771597762
        },
        "feet": {
            "estimated_diameter_min": 182.1964991311,
            "estimated_diameter_max": 407.4037573197
        }
    },
    "is_potentially_hazardous_asteroid": false,
    "close_approach_data": [
        {
            "close_approach_date": "2002-01-18",
            "close_approach_date_full": "2002-Jan-18 19:07",
            "epoch_date_close_approach": 1011380820000,
            "relative_velocity": {
                "kilometers_per_second": "6.5025535797",
                "kilometers_per_hour": "23409.1928868708",
                "miles_per_hour": "14545.5621024004"
            },
            "miss_distance": {
                "astronomical": "1.0434935613",
                "lunar": "405.9189953457",
                "kilometers": "156104414.129194431",
                "miles": "96998785.0464519078"
            },
            "orbiting_body": "Juptr"
        },
        {
            "close_approach_date": "2007-04-03",
            "close_approach_date_full": "2007-Apr-03 03:01",
            "epoch_date_close_approach": 1175569260000,
            "relative_velocity": {
                "kilometers_per_second": "22.4260527714",
                "kilometers_per_hour": "80733.7899770731",
                "miles_per_hour": "50164.8374443652"
            },
            "miss_distance": {
                "astronomical": "0.0792735025",
                "lunar": "30.8373924725",
                "kilometers": "11859147.121439675",
                "miles": "7368932.319330515"
            },
            "orbiting_body": "Earth"
        }
    ],
    "orbital_data": {
        "orbit_id": "10",
        "orbit_determination_date": "2017-04-06 09:06:44",
        "first_observation_date": "2007-03-14",
        "last_observation_date": "2007-03-28",
        "data_arc_in_days": 14,
        "observations_used": 29,
        "orbit_uncertainty": "9",
        "minimum_orbit_intersection": ".0287996",
        "jupiter_tisserand_invariant": "3.063",
        "epoch_osculation": "2454179.5",
        "eccentricity": ".779033030998613",
        "semi_major_axis": "2.341613472365481",
        "inclination": "1.917145147474628",
        "ascending_node_longitude": "79.80402192268104",
        "orbital_period": "1308.793830319997",
        "perihelion_distance": ".5174192315614133",
        "perihelion_argument": "204.7465234193689",
        "aphelion_distance": "4.165807713169548",
        "perihelion_time": "2454238.726910039511",
        "mean_anomaly": "343.7089027161666",
        "mean_motion": ".2750624213379588",
        "equinox": "J2000",
        "orbit_class": {
            "orbit_class_type": "APO",
            "orbit_class_description": "Near-Earth asteroid orbits which cross the Earth’s orbit similar to that of 1862 Apollo",
            "orbit_class_range": "a (semi-major axis) > 1.0 AU; q (perihelion) < 1.017 AU"
        }
    },
    "is_sentry_object": false
}